sat39266
1 39266U 13055B   20046.83976112  .00002274  00000-0  61720-4 0  9994
2 39266  80.9829  67.1987 0630924 245.9177 107.4794 14.36493803331450
